satname,norad_id,inclination_deg,eccentricity,mean_motion_rev_per_day,perigee_km,apogee_km,l1,l2
STARLINK-1234,45190,53.0343,0.0004911,15.7587537,338.8410388273078,345.4416962399,1 45190U 20012N   26167.80788854  .00063881  00000+0  40603-3 0  9995,2 45190  53.0343 195.6233 0004911 313.3918  46.6691 15.75875370351448
STARLINK-1269,45197,53.1572,6.04e-05,15.35819172,458.0754781970818,458.9013425466537,1 45197U 20012V   26167.64325485  .00048068  00000+0  13618-2 0  9996,2 45197  53.1572 298.6241 0000604 309.1823  50.9126 15.35819172350080
STARLINK-1154,45198,53.0416,0.0003201,15.64484398,372.56044032447244,376.88362067579783,1 45198U 20012W   26167.54025865  .00032107  00000+0  33179-3 0  9997,2 45198  53.0416 252.0777 0003201  11.3089 348.7997 15.64484398350676
STARLINK-1199,45201,53.156,0.0002933,15.35817229,456.48899256811,460.49936041624187,1 45201U 20012Z   26167.61431424  .00046016  00000+0  13044-2 0  9994,2 45201  53.1560 283.0275 0002933 314.4580  45.6183 15.35817229350326
STARLINK-1209,45206,53.0365,0.0006998,15.6658679,363.9576051462709,373.40044885766383,1 45206U 20012AE  26167.42762230  .00037188  00000+0  35211-3 0  9991,2 45206  53.0365 212.7106 0006998 279.3994  80.6229 15.66586790350328
STARLINK-1231,45212,53.0402,0.0002412,15.2849238,478.6642016990154,481.9727206134776,1 45212U 20012AL  26167.57433207  .00036517  00000+0  13055-2 0  9999,2 45212  53.0402 278.8394 0002412  69.8024 290.3234 15.28492380350316
STARLINK-1271,45217,53.1568,0.0002956,15.36000388,455.92993283639953,459.9714278730253,1 45217U 20012AR  26167.61072617  .00048703  00000+0  13714-2 0  9995,2 45217  53.1568 283.1526 0002956 318.8464  41.2316 15.36000388350326
STARLINK-1191,45222,53.1546,0.0002552,15.40053643,444.20934218078037,447.69235661911443,1 45222U 20012AW  26167.50288274  .00044781  00000+0  11070-2 0  9992,2 45222  53.1546 256.4107 0002552 287.5450  72.5276 15.40053643350694
STARLINK-1212,45223,53.0382,0.0001171,15.68056113,363.6741427857969,365.25325987004817,1 45223U 20012AX  26167.82032690  .00042207  00000+0  37607-3 0  9993,2 45223  53.0382 226.2959 0001171  48.9296 311.1821 15.68056113351127
STARLINK-1215,45225,53.1554,0.000394,15.36170807,454.75186586165273,460.13830454479375,1 45225U 20012AZ  26167.54422184  .00044756  00000+0  12548-2 0  9992,2 45225  53.1554 257.7250 0003940 321.1841  38.8879 15.36170807350635
STARLINK-1221,45227,53.0632,0.0003058,15.45086794,429.0407853647448,433.20532881566214,1 45227U 20012BB  26167.26337383  .00012840  00000+0  27566-3 0  9995,2 45227  53.0632 161.3325 0003058 353.6762   6.4205 15.45086794351937
STARLINK-1222,45228,53.0514,0.0003489,15.55798559,397.46747637852604,402.1971433629542,1 45228U 20012BC  26167.43293334  .00028010  00000+0  40394-3 0  9992,2 45228  53.0514 227.2096 0003489  17.8912 342.2221 15.55798559350969
STARLINK-1226,45229,53.1549,0.0004264,15.45183957,427.934257761156,433.7409513039029,1 45229U 20012BD  26167.52257208  .00054795  00000+0  11373-2 0  9996,2 45229  53.1549 253.3145 0004264 319.9720  40.0973 15.45183957350639
STARLINK-1227,45230,53.1525,0.0004188,15.45279481,427.7055152648918,433.40847735620264,1 45230U 20012BE  26167.53184613  .00052462  00000+0  10860-2 0  9997,2 45230  53.1525 253.3698 0004188 312.0399  48.0251 15.45279481350757
STARLINK-1246,45235,53.1563,0.0002173,15.35848552,456.91564289839334,459.8868024099593,1 45235U 20012BK  26167.64969045  .00049632  00000+0  14041-2 0  9994,2 45235  53.1563 298.2195 0002173 269.6123  90.4631 15.35848552350144
STARLINK-1270,45237,53.0383,0.0004383,15.64159781,372.69611105888,378.6164862644864,1 45237U 20012BM  26167.47611342  .00090660  00000+0  93178-3 0  9997,2 45237  53.0383 229.6546 0004383 340.1311  19.9532 15.64159781351049
STARLINK-1279,45360,53.0355,0.0002119,15.80033849,328.9232957576378,331.76635035424897,1 45360U 20019A   26167.91668980  .00098668  00000+0  51713-3 0  9995,2 45360  53.0355 329.7583 0002119  65.8931   7.6370 15.80033849  5989
STARLINK-1301,45361,53.0351,0.0001255,15.8205342,323.79326623397446,325.47566187145185,1 45361U 20019B   26167.66070138  .00090057  00000+0  43083-3 0  9995,2 45361  53.0351 333.3110 0001255 320.0942  39.9987 15.82053420346171
STARLINK-1262,45366,53.1558,0.0004443,15.34832888,458.3780944567052,464.4557220595834,1 45366U 20019G   26167.43110179  .00038759  00000+0  11364-2 0  9992,2 45366  53.1558  65.7493 0004443 114.9567 245.1898 15.34832888344889
STARLINK-1273,45367,53.0443,0.00043,15.58136974,390.13752544244926,395.96074551896254,1 45367U 20019H   26167.86608774  .00057771  00000+0  75408-3 0  9998,2 45367  53.0443  37.8114 0004300  94.2778 265.8724 15.58136974345290
STARLINK-1277,45369,53.0418,0.000395,15.65241678,369.8772675525415,375.2103053738474,1 45369U 20019K   26167.33046895  .00040185  00000+0  40120-3 0  9996,2 45369  53.0418  33.9918 0003950  78.9027 281.2432 15.65241678345305
STARLINK-1281,45370,53.1581,0.0004736,15.35681991,455.6575251602453,462.1335623857067,1 45370U 20019L   26167.43769489  .00049196  00000+0  13990-2 0  9995,2 45370  53.1581  65.3014 0004736  98.7988 261.3552 15.35681991344892
STARLINK-1300,45374,53.1588,0.0004173,15.36226395,454.4277686354144,460.1326078207103,1 45374U 20019Q   26167.44686051  .00034973  00000+0  98238-3 0  9999,2 45374  53.1588  65.1329 0004173 114.5168 245.6271 15.36226395344899
STARLINK-1302,45375,53.0457,0.0004381,15.68244983,360.9686353992647,366.8760277856063,1 45375U 20019R   26167.88393361  .00045269  00000+0  39961-3 0  9995,2 45375  53.0457  27.1619 0004381  97.6383 262.5130 15.68244983345447
STARLINK-1304,45376,53.0412,0.000386,15.64243021,372.8098261677487,378.0235696225236,1 45376U 20019S   26167.84637193  .00098116  00000+0  10038-2 0  9998,2 45376  53.0412  28.9410 0003860 119.0206 241.1195 15.64243021345410
STARLINK-1305,45377,53.0374,0.0002647,15.72697916,349.4087655177618,352.971271241292,1 45377U 20019T   26167.75063228  .00062279  00000+0  45435-3 0  9992,2 45377  53.0374   7.3719 0002647 279.3487  80.7232 15.72697916345711
STARLINK-1319,45379,53.0373,0.0001705,15.79048347,331.99148723557664,334.28003124647785,1 45379U 20019V   26167.81110823  .00085738  00000+0  47111-3 0  9993,2 45379  53.0373 358.3798 0001705 113.7306 246.3893 15.79048347345845
STARLINK-1266,45383,53.0454,8.2e-05,15.66713873,367.76097061024575,368.86738860370133,1 45383U 20019Z   26167.84715939  .00042216  00000+0  39714-3 0  9994,2 45383  53.0454  13.7153 0000820 210.3954 149.7014 15.66713873345623
STARLINK-1267,45384,53.0448,0.0005389,15.66167611,366.24630575803894,373.5193215131749,1 45384U 20019AA  26167.81793736  .00043516  00000+0  41797-3 0  9991,2 45384  53.0448   5.1161 0005389 141.2154 218.9249 15.66167611345745
STARLINK-1272,45386,53.0397,0.0005261,15.70868273,352.87120584087734,359.95730066955275,1 45386U 20019AC  26167.74915466  .00055738  00000+0  43983-3 0  9999,2 45386  53.0397 343.9227 0005261 118.2054 241.9494 15.70868273346036
STARLINK-1274,45387,53.0209,0.0005903,15.63564243,373.38335858888695,381.3589114931174,1 45387U 20019AD  26167.75575159  .00089412  00000+0  94062-3 0  9992,2 45387  53.0209 343.5892 0005903 186.5006 173.5932 15.63564243346030
STARLINK-1280,45388,53.0361,7.8e-05,15.84304091,317.76264348261975,318.80728530906526,1 45388U 20019AE  26167.78651421  .00112879  00000+0  48370-3 0  9998,2 45388  53.0361 350.4606 0000780 334.3606  25.7378 15.84304091345933
STARLINK-1283,45389,53.0409,0.0001615,15.72701815,350.0921117467651,352.2656807812582,1 45389U 20019AF  26167.75610709  .00054788  00000+0  40056-3 0  9997,2 45389  53.0409 342.8570 0001615 195.9676 164.1290 15.72701815346055
STARLINK-1284,45390,53.0405,0.0003415,15.71003755,353.7273427610371,358.3267768138712,1 45390U 20019AG  26167.84698983  .00054644  00000+0  42908-3 0  9998,2 45390  53.0405   6.4058 0003415  62.6033 297.5331 15.71003755345721
STARLINK-1297,45395,53.0412,0.0005098,15.69276845,357.53096433681185,364.40215432590594,1 45395U 20019AM  26167.80768233  .00050413  00000+0  42571-3 0  9991,2 45395  53.0412   5.7454 0005098  79.7915 280.3676 15.69276845344914
STARLINK-1307,45397,53.0527,0.0001481,15.57316381,394.42437834968314,396.4307081673969,1 45397U 20019AP  26167.86516479  .00031691  00000+0  43107-3 0  9995,2 45397  53.0527  12.1511 0001481 140.8641 219.2478 15.57316381345477
STARLINK-1255,45399,53.0345,0.0003441,15.66623741,366.25139500171645,370.894480780973,1 45399U 20019AR  26167.72393838  .00038982  00000+0  36852-3 0  9993,2 45399  53.0345 340.0864 0003441 142.2009 217.9248 15.66623741345890
STARLINK-1260,45404,53.1563,0.0004893,15.38817753,446.26335690066753,452.944984410271,1 45404U 20019AW  26167.85330215  .00042006  00000+0  10821-2 0  9993,2 45404  53.1563  25.8685 0004893 120.0760 240.0730 15.38817753345192
STARLINK-1263,45405,53.1568,0.0003396,15.35755603,456.3552843926127,460.9988485065451,1 45405U 20019AX  26167.32026708  .00044532  00000+0  12654-2 0  9997,2 45405  53.1568  29.8139 0003396 139.2756 220.8502 15.35755603345094
STARLINK-1265,45406,53.1556,0.0003532,15.3913195,446.26370313756706,451.0861630871177,1 45406U 20019AY  26167.84380537  .00050372  00000+0  12811-2 0  9992,2 45406  53.1556  25.8802 0003532 110.8900 249.2483 15.39131950345194
STARLINK-1278,45408,53.0397,0.0004918,15.70216547,354.9646277989841,361.5905651960993,1 45408U 20019BA  26167.82879215  .00053587  00000+0  43482-3 0  9998,2 45408  53.0397   4.5111 0004918 108.7225 251.4326 15.70216547345473
STARLINK-1296,45412,53.1556,0.0004152,15.393229,445.27609507848047,450.94461088039407,1 45412U 20019BE  26167.88232491  .00049316  00000+0  12467-2 0  9991,2 45412  53.1556  25.3794 0004152 107.6514 252.4944 15.39322900345207
STARLINK-1309,45414,53.0607,0.0005124,15.69159051,357.850527376002,364.7571063251107,1 45414U 20019BG  26167.72736361  .00044630  00000+0  37954-3 0  9994,2 45414  53.0607 359.0408 0005124  73.5189 286.6391 15.69159051345521
